NORAD_CAT_ID,OBJECT_NAME,OBJECT_TYPE,EPOCH,MEAN_MOTION,ECCENTRICITY,INCLINATION,RA_OF_ASC_NODE,ARG_OF_PERICENTER,MEAN_ANOMALY,BSTAR,MEAN_MOTION_DOT,MEAN_MOTION_DDOT,TLE_LINE0,TLE_LINE1,TLE_LINE2,SEMIMAJOR_AXIS,PERIOD,APOGEE,PERIGEE,DECAYED
51732.0,STARLINK-3518,PAYLOAD,2022-08-10 14:00:01,15.08819788,0.0001348,53.2171,66.9562,69.8243,123.365,0.00095085,0.00014869,0.0,0 STARLINK-3518,1 51732U 22016U   22222.58334491  .00014869  00000-0  95085-3 0  9994,2 51732  53.2171  66.9562 0001348  69.8243 123.3650 15.08819788  1300,6917.941999999999,95.439,540.74,538.875,0.0
51732.0,STARLINK-3518,PAYLOAD,2022-08-10 22:00:00,15.08811193,0.0001469,53.2168,65.4616,59.9585,144.8079,0.0012007,0.00018858,0.0,0 STARLINK-3518,1 51732U 22016U   22222.91667824  .00018858  00000-0  12007-2 0  9994,2 51732  53.2168  65.4616 0001469  59.9585 144.8079 15.08811193  1308,6917.968000000003,95.439,540.85,538.817,0.0
51732.0,STARLINK-3518,PAYLOAD,2022-08-11 06:00:02,15.08840395,0.0001372,53.2165,63.9638,62.7787,153.6175,-0.0017079999999999,-0.00027368,0.0,0 STARLINK-3518,1 51732U 22016U   22223.25002315 -.00027368  00000-0 -17080-2 0  9994,2 51732  53.2165  63.9638 0001372  62.7787 153.6175 15.08840395 27478,6917.879,95.438,540.693,538.795,0.0
51732.0,STARLINK-3518,PAYLOAD,2022-08-11 14:00:01,15.08836563,0.000139,53.2166,62.467,69.7577,158.1568,0.00050693,7.788e-05,0.0,0 STARLINK-3518,1 51732U 22016U   22223.58334491  .00007788  00000-0  50693-3 0  9993,2 51732  53.2166  62.4670 0001390  69.7577 158.1568 15.08836563  1305,6917.891,95.438,540.717,538.794,0.0
51732.0,STARLINK-3518,PAYLOAD,2022-08-11 22:00:00,15.08824192,0.0001518,53.2165,60.9722,59.603,179.9112,0.0017575,0.00027781,0.0,0 STARLINK-3518,1 51732U 22016U   22223.91667824  .00027781  00000-0  17575-2 0  9995,2 51732  53.2165  60.9722 0001518  59.6030 179.9112 15.08824192 27577,6917.929,95.439,540.844,538.744,0.0
51732.0,STARLINK-3518,PAYLOAD,2022-08-12 14:00:01,15.08870586,0.0001401,53.2165,57.9774,67.9274,194.7826,-0.00085163,-0.00013827,0.0,0 STARLINK-3518,1 51732U 22016U   22224.58334491 -.00013827  00000-0 -85163-3 0  9997,2 51732  53.2165  57.9774 0001401  67.9274 194.7826 15.08870586  1301,6917.7869999999975,95.436,540.621,538.683,0.0
51732.0,STARLINK-3518,PAYLOAD,2022-08-12 22:00:01,15.08825312,0.0001512,53.2167,56.4824,56.944,217.4597,0.0015885,0.00025073,0.0,0 STARLINK-3518,1 51732U 22016U   22224.91668981  .00025073  00000-0  15885-2 0  9995,2 51732  53.2167  56.4824 0001512  56.9440 217.4597 15.08825312  1304,6917.925,95.438,540.836,538.744,0.0
51732.0,STARLINK-3518,PAYLOAD,2022-08-13 14:00:01,15.08800417,0.0001519,53.2168,53.4822,66.861,230.6128,0.0026984,0.00042872,0.0,0 STARLINK-3518,1 51732U 22016U   22225.58334491  .00042872  00000-0  26984-2 0  9993,2 51732  53.2168  53.4822 0001519  66.8610 230.6128 15.08800417  1302,6918.001,95.44,540.9169999999998,538.816,0.0
51732.0,STARLINK-3518,PAYLOAD,2022-08-13 22:00:00,15.08911456,0.0001536,53.2171,51.9837,57.8372,251.1849,-0.0052612,-0.00083216,0.0,0 STARLINK-3518,1 51732U 22016U   22225.91667824 -.00083216  00000-0 -52612-2 0  9995,2 51732  53.2171  51.9837 0001536  57.8372 251.1849 15.08911456  1303,6917.6619999999975,95.433,540.59,538.464,0.0
51732.0,STARLINK-3518,PAYLOAD,2022-08-14 14:00:01,15.08848581,0.0001538,53.2178,48.9986,66.2493,265.9499,-0.00031943,-5.369e-05,0.0,0 STARLINK-3518,1 51732U 22016U   22226.58334491 -.00005369  00000-0 -31943-3 0  9998,2 51732  53.2178  48.9986 0001538  66.2493 265.9499 15.08848581  1303,6917.854,95.437,540.783,538.655,0.0
51732.0,STARLINK-3518,PAYLOAD,2022-08-14 16:00:01,15.08855148,0.0001585,53.2178,48.625,63.4911,1.6693,-0.0015808,-0.00025369,0.0,0 STARLINK-3518,1 51732U 22016U   22226.66668981 -.00025369  00000-0 -15808-2 0  9994,2 51732  53.2178  48.6250 0001585  63.4911   1.6693 15.08855148 27991,6917.834,95.437,540.7959999999998,538.6030000000002,0.0
51732.0,STARLINK-3518,PAYLOAD,2022-08-14 22:00:00,15.08822911,0.0001669,53.2179,47.5038,58.4076,285.3979,0.0027687,0.00044031,0.0,0 STARLINK-3518,1 51732U 22016U   22226.91667824  .00044031  00000-0  27687-2 0  9990,2 51732  53.2179  47.5038 0001669  58.4076 285.3979 15.08822911  1300,6917.933000000001,95.439,540.952,538.643,0.0
51732.0,STARLINK-3518,PAYLOAD,2022-08-15 06:00:00,15.08849232,0.0001518,53.2181,46.0058,63.1531,292.2489,1.8197e-05,2e-08,0.0,0 STARLINK-3518,1 51732U 22016U   22227.25001157  .00000002  00000-0  18197-4 0  9997,2 51732  53.2181  46.0058 0001518  63.1531 292.2489 15.08849232 28072,6917.852,95.437,540.7669999999998,538.6669999999998,0.0
51732.0,STARLINK-3518,PAYLOAD,2022-08-15 14:00:01,15.08879643,0.0001474,53.2184,44.5096,65.1094,301.891,-0.0036955,-0.00058686,0.0,0 STARLINK-3518,1 51732U 22016U   22227.58334491 -.00058686  00000-0 -36955-2 0  9996,2 51732  53.2184  44.5096 0001474  65.1094 301.8910 15.08879643  1309,6917.759,95.435,540.644,538.605,0.0
51732.0,STARLINK-3518,PAYLOAD,2022-08-15 22:00:00,15.08813364,0.0001535,53.2183,43.0147,56.2216,322.4008,0.0028794,0.00045802,0.0,0 STARLINK-3518,1 51732U 22016U   22227.91667824  .00045802  00000-0  28794-2 0  9998,2 51732  53.2183  43.0147 0001535  56.2216 322.4008 15.08813364  1309,6917.962,95.439,540.889,538.765,0.0
51732.0,STARLINK-3518,PAYLOAD,2022-08-16 08:00:01,15.08820467,0.0001341999999999,53.2183,41.1424,63.8162,59.2967,0.0028451,0.00045258,0.0,0 STARLINK-3518,1 51732U 22016U   22228.33334491  .00045258  00000-0  28451-2 0  9991,2 51732  53.2183  41.1424 0001342  63.8162  59.2967 15.08820467 28249,6917.94,95.439,540.7330000000002,538.877,0.0
51732.0,STARLINK-3518,PAYLOAD,2022-08-16 14:00:01,15.08863049,0.0001406999999999,53.2186,40.0208,64.4664,337.3298,-0.0011857,-0.00019121,0.0,0 STARLINK-3518,1 51732U 22016U   22228.58334491 -.00019121  00000-0 -11857-2 0  9992,2 51732  53.2186  40.0208 0001407  64.4664 337.3298 15.08863049  1304,6917.81,95.436,540.648,538.702,0.0
51732.0,STARLINK-3518,PAYLOAD,2022-08-16 22:00:00,15.08837833,0.0001525,53.2183,38.5258,56.9385,356.4754,0.0016827,0.00026592,0.0,0 STARLINK-3518,1 51732U 22016U   22228.91667824  .00026592  00000-0  16827-2 0  9998,2 51732  53.2183  38.5258 0001525  56.9385 356.4754 15.08837833  1306,6917.887,95.438,540.807,538.697,0.0
51732.0,STARLINK-3518,PAYLOAD,2022-08-17 14:00:01,15.08852229,0.000151,53.2183,35.5322,67.2492,9.3536,-0.0015732,-0.00025246,0.0,0 STARLINK-3518,1 51732U 22016U   22229.58334491 -.00025246  00000-0 -15732-2 0  9994,2 51732  53.2183  35.5322 0001510  67.2492   9.3536 15.08852229 28434,6917.843000000003,95.437,540.753,538.663,0.0
51732.0,STARLINK-3518,PAYLOAD,2022-08-17 16:00:00,15.08848402,0.0001547,53.2182,35.1585,64.3762,105.1292,-0.0012524,-0.00020169,0.0,0 STARLINK-3518,1 51732U 22016U   22229.66667824 -.00020169  00000-0 -12524-2 0  9997,2 51732  53.2182  35.1585 0001547  64.3762 105.1292 15.08848402  1307,6917.855,95.437,540.79,538.65,0.0
51732.0,STARLINK-3518,PAYLOAD,2022-08-18 08:00:01,15.08836924,0.0001435,53.2177,32.1647,67.3535,125.3606,0.0027217,0.0004328999999999,0.0,0 STARLINK-3518,1 51732U 22016U   22230.33334491  .00043290  00000-0  27217-2 0  9997,2 51732  53.2177  32.1647 0001435  67.3535 125.3606 15.08836924 28548,6917.89,95.438,540.748,538.762,0.0
51732.0,STARLINK-3518,PAYLOAD,2022-08-18 14:00:01,15.08885892,0.0001464,53.2179,31.0434,65.7703,45.6417,-0.004406,-0.00069817,0.0,0 STARLINK-3518,1 51732U 22016U   22230.58334491 -.00069817  00000-0 -44060-2 0  9994,2 51732  53.2179  31.0434 0001464  65.7703  45.6417 15.08885892  1300,6917.74,95.435,540.618,538.592,0.0
51732.0,STARLINK-3518,PAYLOAD,2022-08-18 22:00:00,15.08819829,0.0001469,53.2176,29.5481,55.4269,67.6097,0.0031539,0.00050236,0.0,0 STARLINK-3518,1 51732U 22016U   22230.91667824  .00050236  00000-0  31539-2 0  9990,2 51732  53.2176  29.5481 0001469  55.4269  67.6097 15.08819829 28639,6917.941999999999,95.439,540.823,538.7909999999998,0.0
51732.0,STARLINK-3518,PAYLOAD,2022-08-19 14:00:01,15.08845599,0.0001361,53.2177,26.5544,60.9129,85.3104,-0.0014369,-0.00023087,0.0,0 STARLINK-3518,1 51732U 22016U   22231.58334491 -.00023087  00000-0 -14369-2 0  9993,2 51732  53.2177  26.5544 0001361  60.9129  85.3104 15.08845599  1308,6917.863,95.437,540.67,538.7869999999998,0.0
51732.0,STARLINK-3518,PAYLOAD,2022-08-19 16:00:00,15.08842188,0.0001416,53.2176,26.1809,57.9339,181.1891,-0.0014833,-0.00023818,0.0,0 STARLINK-3518,1 51732U 22016U   22231.66667824 -.00023818  00000-0 -14833-2 0  9999,2 51732  53.2176  26.1809 0001416  57.9339 181.1891 15.08842188 28743,6917.874,95.437,540.7180000000002,538.759,0.0
51732.0,STARLINK-3518,PAYLOAD,2022-08-19 22:00:00,15.08818863,0.0001492,53.2175,25.0591,53.6607,104.153,0.00020648,2.998e-05,0.0,0 STARLINK-3518,1 51732U 22016U   22231.91667824  .00002998  00000-0  20648-3 0  9993,2 51732  53.2175  25.0591 0001492  53.6607 104.1530 15.08818863  1304,6917.945,95.439,540.842,538.778,0.0
51732.0,STARLINK-3518,PAYLOAD,2022-08-20 14:00:01,15.08835758,0.0001511,53.2178,22.0656,60.9888,119.9574,-0.0012974,-0.00020874,0.0,0 STARLINK-3518,1 51732U 22016U   22232.58334491 -.00020874  00000-0 -12974-2 0  9995,2 51732  53.2178  22.0656 0001511  60.9888 119.9574 15.08835758  1304,6917.893,95.438,540.804,538.7130000000002,0.0
51732.0,STARLINK-3518,PAYLOAD,2022-08-20 16:00:00,15.08828263,0.0001564,53.2177,21.6919,58.1265,215.7175,-0.00057238,-9.383e-05,0.0,0 STARLINK-3518,1 51732U 22016U   22232.66667824 -.00009383  00000-0 -57238-3 0  9998,2 51732  53.2177  21.6919 0001564  58.1265 215.7175 15.08828263 28894,6917.916,95.438,540.863,538.6990000000002,0.0
51732.0,STARLINK-3518,PAYLOAD,2022-08-20 22:00:00,15.08817629,0.0001585,53.2177,20.5701,53.7396,138.7899,0.0023016,0.0003651,0.0,0 STARLINK-3518,1 51732U 22016U   22232.91667824  .00036510  00000-0  23016-2 0  9992,2 51732  53.2177  20.5701 0001585  53.7396 138.7899 15.08817629  1308,6917.949000000001,95.439,540.91,538.717,0.0
